[{"OBJECT_NAME":"STARLINK-4512","OBJECT_ID":"2022-097L","EPOCH":"2026-03-09T09:56:36.453120","MEAN_MOTION":15.08840498,"ECCENTRICITY":0.00013725,"INCLINATION":53.2172,"RA_OF_ASC_NODE":125.3581,"ARG_OF_PERICENTER":91.9558,"MEAN_ANOMALY":268.1591,"EPHEMERIS_TYPE":0,"CLASSIFICATION_TYPE":"U","NORAD_CAT_ID":53398,"ELEMENT_SET_NO":999,"REV_AT_EPOCH":19847,"BSTAR":2.0778029e-5,"MEAN_MOTION_DOT":4.3e-7,"MEAN_MOTION_DDOT":0},{"OBJECT_NAME":"CZ-4B DEB","OBJECT_ID":"2006-015E","EPOCH":"2026-03-09T20:34:53.082912","MEAN_MOTION":15.19885806,"ECCENTRICITY":0.00461993,"INCLINATION":98.0565,"RA_OF_ASC_NODE":201.7753,"ARG_OF_PERICENTER":62.4887,"MEAN_ANOMALY":298.1031,"EPHEMERIS_TYPE":0,"CLASSIFICATION_TYPE":"U","NORAD_CAT_ID":29538,"ELEMENT_SET_NO":999,"REV_AT_EPOCH":5389,"BSTAR":0.0022587151,"MEAN_MOTION_DOT":0.00050103,"MEAN_MOTION_DDOT":0}]
